{"type": "FeatureCollection", "features": [ {"type": "Feature", "properties": {"norad_id": 44476, "name": "INTELSAT 39 (IS-39)", "group": "intelsat", "lat": -0.011966970565119375, "lon": -7.997659568980355, "alt_km": 35790.15714414787, "timestamp": "2025-12-27T12:55:14.155213+00:00", "meta": {"OBJECT_NAME": "INTELSAT 39 (IS-39)", "OBJECT_ID": "2019-049B", "EPOCH": "2025-12-27T04:44:07.817280", "MEAN_MOTION": 1.00270152, "ECCENTRICITY": 8.904e-05, "INCLINATION": 0.0212, "RA_OF_ASC_NODE": 10.5992, "ARG_OF_PERICENTER": 147.824, "MEAN_ANOMALY": 70.4783, "EPHEMERIS_TYPE": 0, "CLASSIFICATION_TYPE": "U", "NORAD_CAT_ID": 44476, "ELEMENT_SET_NO": 999, "REV_AT_EPOCH": 2340, "BSTAR": 0, "MEAN_MOTION_DOT": 0, "MEAN_MOTION_DDOT": 0}, "tle": {"line1": "1 44476U 19049B   25361.19731270  .00000000  00000+0  00000+0 0  9993", "line2": "2 44476   0.0212  10.5992 0000890 147.8240  70.4783  1.00270152 23407"}}, "geometry": {"type": "Point", "coordinates": [-7.997659568980355, -0.011966970565119375]}}, {"type": "Feature", "properties": {"norad_id": 46114, "name": "GALAXY 30 (G-30)", "group": "intelsat", "lat": 0.007686687819075613, "lon": 165.0390153640209, "alt_km": 35789.84937193569, "timestamp": "2025-12-27T12:55:14.155224+00:00", "meta": {"OBJECT_NAME": "GALAXY 30 (G-30)", "OBJECT_ID": "2020-056C", "EPOCH": "2025-12-27T05:33:33.081696", "MEAN_MOTION": 1.00271208, "ECCENTRICITY": 0.00023563, "INCLINATION": 0.0135, "RA_OF_ASC_NODE": 354.4997, "ARG_OF_PERICENTER": 281.8756, "MEAN_ANOMALY": 137.9735, "EPHEMERIS_TYPE": 0, "CLASSIFICATION_TYPE": "U", "NORAD_CAT_ID": 46114, "ELEMENT_SET_NO": 999, "REV_AT_EPOCH": 1956, "BSTAR": 0, "MEAN_MOTION_DOT": 5.9e-07, "MEAN_MOTION_DDOT": 0}, "tle": {"line1": "1 46114U 20056C   25361.23163289  .00000059  00000+0  00000+0 0  9992", "line2": "2 46114   0.0135 354.4997 0002356 281.8756 137.9735  1.00271208 19568"}}, "geometry": {"type": "Point", "coordinates": [165.0390153640209, 0.007686687819075613]}}, {"type": "Feature", "properties": {"norad_id": 54026, "name": "GALAXY 33 (G-33)", "group": "intelsat", "lat": 0.012453265201659628, "lon": 157.0495614311244, "alt_km": 35789.44183261118, "timestamp": "2025-12-27T12:55:14.155236+00:00", "meta": {"OBJECT_NAME": "GALAXY 33 (G-33)", "OBJECT_ID": "2022-128A", "EPOCH": "2025-12-27T05:31:18.296832", "MEAN_MOTION": 1.00271483, "ECCENTRICITY": 0.00018397, "INCLINATION": 0.0165, "RA_OF_ASC_NODE": 353.3938, "ARG_OF_PERICENTER": 278.7441, "MEAN_ANOMALY": 133.6519, "EPHEMERIS_TYPE": 0, "CLASSIFICATION_TYPE": "U", "NORAD_CAT_ID": 54026, "ELEMENT_SET_NO": 999, "REV_AT_EPOCH": 1201, "BSTAR": 0, "MEAN_MOTION_DOT": 1.01e-06, "MEAN_MOTION_DDOT": 0}, "tle": {"line1": "1 54026U 22128A   25361.23007288  .00000101  00000+0  00000+0 0  9999", "line2": "2 54026   0.0165 353.3938 0001839 278.7441 133.6519  1.00271483 12017"}}, "geometry": {"type": "Point", "coordinates": [157.0495614311244, 0.012453265201659628]}}, {"type": "Feature", "properties": {"norad_id": 54027, "name": "GALAXY 34 (G-34)", "group": "intelsat", "lat": 0.02384476248141397, "lon": 161.0933954932113, "alt_km": 35788.86931791229, "timestamp": "2025-12-27T12:55:14.155248+00:00", "meta": {"OBJECT_NAME": "GALAXY 34 (G-34)", "OBJECT_ID": "2022-128B", "EPOCH": "2025-12-27T05:32:25.689696", "MEAN_MOTION": 1.00270577, "ECCENTRICITY": 0.00017706, "INCLINATION": 0.0234, "RA_OF_ASC_NODE": 19.671, "ARG_OF_PERICENTER": 250.6746, "MEAN_ANOMALY": 139.7706, "EPHEMERIS_TYPE": 0, "CLASSIFICATION_TYPE": "U", "NORAD_CAT_ID": 54027, "ELEMENT_SET_NO": 999, "REV_AT_EPOCH": 1218, "BSTAR": 0, "MEAN_MOTION_DOT": 0, "MEAN_MOTION_DDOT": 0}, "tle": {"line1": "1 54027U 22128B   25361.23085289  .00000000  00000+0  00000+0 0  9995", "line2": "2 54027   0.0234  19.6710 0001770 250.6746 139.7706  1.00270577 12182"}}, "geometry": {"type": "Point", "coordinates": [161.0933954932113, 0.02384476248141397]}}, {"type": "Feature", "properties": {"norad_id": 54243, "name": "GALAXY 31 (G-31)", "group": "intelsat", "lat": 0.013320177556471193, "lon": 169.04627464751627, "alt_km": 35789.688509795706, "timestamp": "2025-12-27T12:55:14.155260+00:00", "meta": {"OBJECT_NAME": "GALAXY 31 (G-31)", "OBJECT_ID": "2022-153A", "EPOCH": "2025-12-27T05:34:40.475424", "MEAN_MOTION": 1.00271303, "ECCENTRICITY": 0.0001821, "INCLINATION": 0.0066, "RA_OF_ASC_NODE": 38.5531, "ARG_OF_PERICENTER": 247.4947, "MEAN_ANOMALY": 132.5831, "EPHEMERIS_TYPE": 0, "CLASSIFICATION_TYPE": "U", "NORAD_CAT_ID": 54243, "ELEMENT_SET_NO": 999, "REV_AT_EPOCH": 540, "BSTAR": 0, "MEAN_MOTION_DOT": 3.6e-07, "MEAN_MOTION_DDOT": 0}, "tle": {"line1": "1 54243U 22153A   25361.23241291  .00000036  00000+0  00000+0 0  9999", "line2": "2 54243   0.0066  38.5531 0001821 247.4947 132.5831  1.00271303  5405"}}, "geometry": {"type": "Point", "coordinates": [169.04627464751627, 0.013320177556471193]}}, {"type": "Feature", "properties": {"norad_id": 54244, "name": "GALAXY 32 (G-32)", "group": "intelsat", "lat": 5.087417850714325e-06, "lon": -160.948080845985, "alt_km": 35789.880809389884, "timestamp": "2025-12-27T12:55:14.155272+00:00", "meta": {"OBJECT_NAME": "GALAXY 32 (G-32)", "OBJECT_ID": "2022-153B", "EPOCH": "2025-12-27T05:43:17.150016", "MEAN_MOTION": 1.00271625, "ECCENTRICITY": 0.00020999, "INCLINATION": 0.0101, "RA_OF_ASC_NODE": 27.3802, "ARG_OF_PERICENTER": 286.8515, "MEAN_ANOMALY": 136.5664, "EPHEMERIS_TYPE": 0, "CLASSIFICATION_TYPE": "U", "NORAD_CAT_ID": 54244, "ELEMENT_SET_NO": 999, "REV_AT_EPOCH": 1142, "BSTAR": 0, "MEAN_MOTION_DOT": -1.52e-06, "MEAN_MOTION_DDOT": 0}, "tle": {"line1": "1 54244U 22153B   25361.23839294 -.00000152  00000+0  00000+0 0  9996", "line2": "2 54244   0.0101  27.3802 0002099 286.8515 136.5664  1.00271625 11423"}}, "geometry": {"type": "Point", "coordinates": [-160.948080845985, 5.087417850714325e-06]}}, {"type": "Feature", "properties": {"norad_id": 54741, "name": "GALAXY 35 (G-35)", "group": "intelsat", "lat": -0.009683859192869078, "lon": -163.0665531416384, "alt_km": 35785.29983921243, "timestamp": "2025-12-27T12:55:14.155284+00:00", "meta": {"OBJECT_NAME": "GALAXY 35 (G-35)", "OBJECT_ID": "2022-170A", "EPOCH": "2025-12-27T05:42:39.710304", "MEAN_MOTION": 1.00268795, "ECCENTRICITY": 0.00026197, "INCLINATION": 0.0111, "RA_OF_ASC_NODE": 351.8184, "ARG_OF_PERICENTER": 286.6636, "MEAN_ANOMALY": 170.0523, "EPHEMERIS_TYPE": 0, "CLASSIFICATION_TYPE": "U", "NORAD_CAT_ID": 54741, "ELEMENT_SET_NO": 999, "REV_AT_EPOCH": 1117, "BSTAR": 0, "MEAN_MOTION_DOT": 0, "MEAN_MOTION_DDOT": 0}, "tle": {"line1": "1 54741U 22170A   25361.23795961  .00000000  00000+0  00000+0 0  9990", "line2": "2 54741   0.0111 351.8184 0002619 286.6636 170.0523  1.00268795 11177"}}, "geometry": {"type": "Point", "coordinates": [-163.0665531416384, -0.009683859192869078]}}, {"type": "Feature", "properties": {"norad_id": 54742, "name": "GALAXY 36 (G-36)", "group": "intelsat", "lat": 0.014214690187603629, "lon": -158.92559687944294, "alt_km": 35787.39482998496, "timestamp": "2025-12-27T12:55:14.155296+00:00", "meta": {"OBJECT_NAME": "GALAXY 36 (G-36)", "OBJECT_ID": "2022-170B", "EPOCH": "2025-12-27T05:39:55.754208", "MEAN_MOTION": 1.00271515, "ECCENTRICITY": 4.609e-05, "INCLINATION": 0.0242, "RA_OF_ASC_NODE": 105.4723, "ARG_OF_PERICENTER": 224.8294, "MEAN_ANOMALY": 121.6598, "EPHEMERIS_TYPE": 0, "CLASSIFICATION_TYPE": "U", "NORAD_CAT_ID": 54742, "ELEMENT_SET_NO": 999, "REV_AT_EPOCH": 1105, "BSTAR": 0, "MEAN_MOTION_DOT": -1.63e-06, "MEAN_MOTION_DDOT": 0}, "tle": {"line1": "1 54742U 22170B   25361.23606197 -.00000163  00000+0  00000+0 0  9994", "line2": "2 54742   0.0242 105.4723 0000460 224.8294 121.6598  1.00271515 11056"}}, "geometry": {"type": "Point", "coordinates": [-158.92559687944294, 0.014214690187603629]}}, {"type": "Feature", "properties": {"norad_id": 57493, "name": "GALAXY 37 (G-37)", "group": "intelsat", "lat": 0.021418620911491906, "lon": 163.04018680625083, "alt_km": 35790.15674905117, "timestamp": "2025-12-27T12:55:14.155307+00:00", "meta": {"OBJECT_NAME": "GALAXY 37 (G-37)", "OBJECT_ID": "2023-112A", "EPOCH": "2025-12-27T05:32:55.641984", "MEAN_MOTION": 1.0027199, "ECCENTRICITY": 0.00022151, "INCLINATION": 0.0138, "RA_OF_ASC_NODE": 47.0546, "ARG_OF_PERICENTER": 232.3392, "MEAN_ANOMALY": 132.7964, "EPHEMERIS_TYPE": 0, "CLASSIFICATION_TYPE": "U", "NORAD_CAT_ID": 57493, "ELEMENT_SET_NO": 999, "REV_AT_EPOCH": 881, "BSTAR": 0, "MEAN_MOTION_DOT": 7e-07, "MEAN_MOTION_DDOT": 0}, "tle": {"line1": "1 57493U 23112A   25361.23119956  .00000070  00000+0  00000+0 0  9995", "line2": "2 57493   0.0138  47.0546 0002215 232.3392 132.7964  1.00271990  8810"}}, "geometry": {"type": "Point", "coordinates": [163.04018680625083, 0.021418620911491906]}}]}